{"type": "FeatureCollection", "features": [ {"type": "Feature", "properties": {"norad_id": 40118, "name": "GAOFEN-2", "group": "resource", "lat": -80.80370320521162, "lon": 114.67345310138064, "alt_km": 640.8139215777874, "timestamp": "2025-12-20T16:47:35.948541+00:00", "meta": {"OBJECT_NAME": "GAOFEN-2", "OBJECT_ID": "2014-049A", "EPOCH": "2025-12-20T12:18:49.639392", "MEAN_MOTION": 14.80620724, "ECCENTRICITY": 0.0008725, "INCLINATION": 98.038, "RA_OF_ASC_NODE": 53.6954, "ARG_OF_PERICENTER": 91.2999, "MEAN_ANOMALY": 268.9213, "EPHEMERIS_TYPE": 0, "CLASSIFICATION_TYPE": "U", "NORAD_CAT_ID": 40118, "ELEMENT_SET_NO": 999, "REV_AT_EPOCH": 61279, "BSTAR": 5.8849e-05, "MEAN_MOTION_DOT": 3.98e-06, "MEAN_MOTION_DDOT": 0}, "tle": {"line1": "1 40118U 14049A   25354.51307453  .00000398  00000+0  58849-4 0  9996", "line2": "2 40118  98.0380  53.6954 0008725  91.2999 268.9213 14.80620724612797"}}, "geometry": {"type": "Point", "coordinates": [114.67345310138064, -80.80370320521162]}}, {"type": "Feature", "properties": {"norad_id": 40143, "name": "YAOGAN-21", "group": "resource", "lat": 30.39177274565202, "lon": 33.430253716666364, "alt_km": 486.99908575138124, "timestamp": "2025-12-20T16:47:35.948551+00:00", "meta": {"OBJECT_NAME": "YAOGAN-21", "OBJECT_ID": "2014-053A", "EPOCH": "2025-12-20T11:55:52.412160", "MEAN_MOTION": 15.23752437, "ECCENTRICITY": 0.0009048, "INCLINATION": 97.1747, "RA_OF_ASC_NODE": 37.4734, "ARG_OF_PERICENTER": 17.1664, "MEAN_ANOMALY": 342.9879, "EPHEMERIS_TYPE": 0, "CLASSIFICATION_TYPE": "U", "NORAD_CAT_ID": 40143, "ELEMENT_SET_NO": 999, "REV_AT_EPOCH": 62772, "BSTAR": 0.00022191, "MEAN_MOTION_DOT": 5.274e-05, "MEAN_MOTION_DDOT": 0}, "tle": {"line1": "1 40143U 14053A   25354.49713440  .00005274  00000+0  22191-3 0  9991", "line2": "2 40143  97.1747  37.4734 0009048  17.1664 342.9879 15.23752437627728"}}, "geometry": {"type": "Point", "coordinates": [33.430253716666364, 30.39177274565202]}}, {"type": "Feature", "properties": {"norad_id": 40275, "name": "YAOGAN-22", "group": "resource", "lat": 29.231410812918547, "lon": 132.1335212866971, "alt_km": 1204.538862068519, "timestamp": "2025-12-20T16:47:35.948561+00:00", "meta": {"OBJECT_NAME": "YAOGAN-22", "OBJECT_ID": "2014-063A", "EPOCH": "2025-12-20T09:20:28.324608", "MEAN_MOTION": 13.15522961, "ECCENTRICITY": 0.0006023, "INCLINATION": 100.7426, "RA_OF_ASC_NODE": 137.9168, "ARG_OF_PERICENTER": 229.7335, "MEAN_ANOMALY": 130.325, "EPHEMERIS_TYPE": 0, "CLASSIFICATION_TYPE": "U", "NORAD_CAT_ID": 40275, "ELEMENT_SET_NO": 999, "REV_AT_EPOCH": 53630, "BSTAR": 9.3024e-06, "MEAN_MOTION_DOT": -4.3e-07, "MEAN_MOTION_DDOT": 0}, "tle": {"line1": "1 40275U 14063A   25354.38921672 -.00000043  00000+0  93024-5 0  9999", "line2": "2 40275 100.7426 137.9168 0006023 229.7335 130.3250 13.15522961536303"}}, "geometry": {"type": "Point", "coordinates": [132.1335212866971, 29.231410812918547]}}, {"type": "Feature", "properties": {"norad_id": 40298, "name": "ASNARO", "group": "resource", "lat": -39.502060250375166, "lon": 76.57424921862103, "alt_km": 516.4618454752754, "timestamp": "2025-12-20T16:47:35.948571+00:00", "meta": {"OBJECT_NAME": "ASNARO", "OBJECT_ID": "2014-070A", "EPOCH": "2025-12-20T12:13:39.630144", "MEAN_MOTION": 15.19644529, "ECCENTRICITY": 0.0005724, "INCLINATION": 97.365, "RA_OF_ASC_NODE": 70.2674, "ARG_OF_PERICENTER": 100.4071, "MEAN_ANOMALY": 259.7809, "EPHEMERIS_TYPE": 0, "CLASSIFICATION_TYPE": "U", "NORAD_CAT_ID": 40298, "ELEMENT_SET_NO": 999, "REV_AT_EPOCH": 61687, "BSTAR": 0.00040654, "MEAN_MOTION_DOT": 8.606e-05, "MEAN_MOTION_DDOT": 0}, "tle": {"line1": "1 40298U 14070A   25354.50948646  .00008606  00000+0  40654-3 0  9997", "line2": "2 40298  97.3650  70.2674 0005724 100.4071 259.7809 15.19644529616876"}}, "geometry": {"type": "Point", "coordinates": [76.57424921862103, -39.502060250375166]}}, {"type": "Feature", "properties": {"norad_id": 40310, "name": "YAOGAN-24", "group": "resource", "lat": 47.7501045232044, "lon": -45.11825848479331, "alt_km": 626.9949322388493, "timestamp": "2025-12-20T16:47:35.948581+00:00", "meta": {"OBJECT_NAME": "YAOGAN-24", "OBJECT_ID": "2014-072A", "EPOCH": "2025-12-20T12:56:48.735744", "MEAN_MOTION": 14.76193492, "ECCENTRICITY": 0.0015112, "INCLINATION": 98.1224, "RA_OF_ASC_NODE": 125.6746, "ARG_OF_PERICENTER": 114.6249, "MEAN_ANOMALY": 245.6536, "EPHEMERIS_TYPE": 0, "CLASSIFICATION_TYPE": "U", "NORAD_CAT_ID": 40310, "ELEMENT_SET_NO": 999, "REV_AT_EPOCH": 59736, "BSTAR": 0.00018225, "MEAN_MOTION_DOT": 1.21e-05, "MEAN_MOTION_DDOT": 0}, "tle": {"line1": "1 40310U 14072A   25354.53945296  .00001210  00000+0  18225-3 0  9998", "line2": "2 40310  98.1224 125.6746 0015112 114.6249 245.6536 14.76193492597361"}}, "geometry": {"type": "Point", "coordinates": [-45.11825848479331, 47.7501045232044]}}, {"type": "Feature", "properties": {"norad_id": 40336, "name": "CBERS 4", "group": "resource", "lat": 31.122730430940297, "lon": -122.48005264020698, "alt_km": 770.6965672858678, "timestamp": "2025-12-20T16:47:35.948591+00:00", "meta": {"OBJECT_NAME": "CBERS 4", "OBJECT_ID": "2014-079A", "EPOCH": "2025-12-20T12:45:31.440960", "MEAN_MOTION": 14.35520957, "ECCENTRICITY": 0.0001809, "INCLINATION": 98.3303, "RA_OF_ASC_NODE": 52.2823, "ARG_OF_PERICENTER": 102.883, "MEAN_ANOMALY": 257.2558, "EPHEMERIS_TYPE": 0, "CLASSIFICATION_TYPE": "U", "NORAD_CAT_ID": 40336, "ELEMENT_SET_NO": 999, "REV_AT_EPOCH": 57832, "BSTAR": 0.00010546, "MEAN_MOTION_DOT": 2.61e-06, "MEAN_MOTION_DDOT": 0}, "tle": {"line1": "1 40336U 14079A   25354.53161390  .00000261  00000+0  10546-3 0  9991", "line2": "2 40336  98.3303  52.2823 0001809 102.8830 257.2558 14.35520957578326"}}, "geometry": {"type": "Point", "coordinates": [-122.48005264020698, 31.122730430940297]}}, {"type": "Feature", "properties": {"norad_id": 40362, "name": "YAOGAN-26", "group": "resource", "lat": -15.258513811794192, "lon": 173.15220430203544, "alt_km": 455.7394622174397, "timestamp": "2025-12-20T16:47:35.948602+00:00", "meta": {"OBJECT_NAME": "YAOGAN-26", "OBJECT_ID": "2014-088A", "EPOCH": "2025-12-20T12:49:40.679904", "MEAN_MOTION": 15.39555994, "ECCENTRICITY": 0.0005138, "INCLINATION": 97.0634, "RA_OF_ASC_NODE": 354.9312, "ARG_OF_PERICENTER": 6.2084, "MEAN_ANOMALY": 353.9225, "EPHEMERIS_TYPE": 0, "CLASSIFICATION_TYPE": "U", "NORAD_CAT_ID": 40362, "ELEMENT_SET_NO": 999, "REV_AT_EPOCH": 61014, "BSTAR": 0.00033377, "MEAN_MOTION_DOT": 0.00013057, "MEAN_MOTION_DDOT": 0}, "tle": {"line1": "1 40362U 14088A   25354.53449861  .00013057  00000+0  33377-3 0  9996", "line2": "2 40362  97.0634 354.9312 0005138   6.2084 353.9225 15.39555994610146"}}, "geometry": {"type": "Point", "coordinates": [173.15220430203544, -15.258513811794192]}}, {"type": "Feature", "properties": {"norad_id": 40376, "name": "SMAP", "group": "resource", "lat": 66.10414714051205, "lon": -19.511445563517047, "alt_km": 675.1163822682229, "timestamp": "2025-12-20T16:47:35.948612+00:00", "meta": {"OBJECT_NAME": "SMAP", "OBJECT_ID": "2015-003A", "EPOCH": "2025-12-20T11:33:47.119104", "MEAN_MOTION": 14.6335396, "ECCENTRICITY": 0.0001228, "INCLINATION": 98.1288, "RA_OF_ASC_NODE": 359.094, "ARG_OF_PERICENTER": 91.4274, "MEAN_ANOMALY": 268.7069, "EPHEMERIS_TYPE": 0, "CLASSIFICATION_TYPE": "U", "NORAD_CAT_ID": 40376, "ELEMENT_SET_NO": 999, "REV_AT_EPOCH": 58148, "BSTAR": 8.1744e-05, "MEAN_MOTION_DOT": 3.75e-06, "MEAN_MOTION_DDOT": 0}, "tle": {"line1": "1 40376U 15003A   25354.48179536  .00000375  00000+0  81744-4 0  9993", "line2": "2 40376  98.1288 359.0940 0001228  91.4274 268.7069 14.63353960581482"}}, "geometry": {"type": "Point", "coordinates": [-19.511445563517047, 66.10414714051205]}}, {"type": "Feature", "properties": {"norad_id": 40536, "name": "KOMPSAT-3A", "group": "resource", "lat": -82.27905494218757, "lon": 65.08176710356662, "alt_km": 444.53227369733486, "timestamp": "2025-12-20T16:47:35.948622+00:00", "meta": {"OBJECT_NAME": "KOMPSAT-3A", "OBJECT_ID": "2015-014A", "EPOCH": "2025-12-20T12:31:14.382336", "MEAN_MOTION": 15.44211732, "ECCENTRICITY": 0.0005438, "INCLINATION": 97.6792, "RA_OF_ASC_NODE": 329.2991, "ARG_OF_PERICENTER": 109.5734, "MEAN_ANOMALY": 250.6101, "EPHEMERIS_TYPE": 0, "CLASSIFICATION_TYPE": "U", "NORAD_CAT_ID": 40536, "ELEMENT_SET_NO": 999, "REV_AT_EPOCH": 59415, "BSTAR": 0.00029055, "MEAN_MOTION_DOT": 0.00013256, "MEAN_MOTION_DDOT": 0}, "tle": {"line1": "1 40536U 15014A   25354.52169424  .00013256  00000+0  29055-3 0  9991", "line2": "2 40536  97.6792 329.2991 0005438 109.5734 250.6101 15.44211732594153"}}, "geometry": {"type": "Point", "coordinates": [65.08176710356662, -82.27905494218757]}}, {"type": "Feature", "properties": {"norad_id": 40697, "name": "SENTINEL-2A", "group": "resource", "lat": 80.07442763335968, "lon": 7.55417037774767, "alt_km": 780.8410484606347, "timestamp": "2025-12-20T16:47:35.948633+00:00", "meta": {"OBJECT_NAME": "SENTINEL-2A", "OBJECT_ID": "2015-028A", "EPOCH": "2025-12-20T11:21:45.560736", "MEAN_MOTION": 14.30808851, "ECCENTRICITY": 0.0001081, "INCLINATION": 98.5745, "RA_OF_ASC_NODE": 66.8975, "ARG_OF_PERICENTER": 87.9069, "MEAN_ANOMALY": 272.2237, "EPHEMERIS_TYPE": 0, "CLASSIFICATION_TYPE": "U", "NORAD_CAT_ID": 40697, "ELEMENT_SET_NO": 999, "REV_AT_EPOCH": 54817, "BSTAR": 0.00015155, "MEAN_MOTION_DOT": 3.54e-06, "MEAN_MOTION_DDOT": 0}, "tle": {"line1": "1 40697U 15028A   25354.47344399  .00000354  00000+0  15155-3 0  9995", "line2": "2 40697  98.5745  66.8975 0001081  87.9069 272.2237 14.30808851548174"}}, "geometry": {"type": "Point", "coordinates": [7.55417037774767, 80.07442763335968]}}]}